BEIDOU-3 M13            
1 43622U 18072A   24073.16378470 -.00000001  00000+0  00000+0 0  9997
2 43622  55.9173  90.0816 0008964 293.8170  66.1334  1.86231214 37270
BEIDOU-3 M14            
1 43623U 18072B   24071.95534511  .00000014  00000+0  00000+0 0  9996
2 43623  55.9180  90.1150 0006421 311.1592  48.8379  1.86231178 37241
GPS BIII-1              
1 43873U 18109A   24072.86160597  .00000019  00000+0  00000+0 0  9999
2 43873  55.2567 124.8339 0028372 194.7648 165.9312  2.00551573 38453
METEOR-M2 2             
1 44387U 19038A   24073.16113556  .00000061  00000+0  46181-4 0  9991
2 44387  98.8166  42.0620 0000566 178.6357 181.4823 14.23859285243726
GPS BIII-2              
1 44506U 19056A   24072.24477545 -.00000096  00000+0  00000+0 0  9997
2 44506  55.8408   3.9204 0039083 189.8467 341.6231  2.00569891 33483
BEIDOU-3 M23            
1 44542U 19061A   24072.33287476  .00000025  00000+0  00000+0 0  9996
2 44542  54.4573 210.6309 0007729   7.6889 352.2721  1.86231051 30397
BEIDOU-3 M24            
1 44543U 19061B   24072.72739944  .00000027  00000+0  00000+0 0  9994
2 44543  54.4557 210.5863 0004441   2.6825 173.9180  1.86231339 30405
BEIDOU-3 M21            
1 44793U 19078A   24072.17876609 -.00000081  00000+0  00000+0 0  9999
2 44793  54.6313 328.7303 0007292  19.4421 340.6333  1.86231910 29248
BEIDOU-3 M22            
1 44794U 19078B   24070.16102315 -.00000067  00000+0  00000+0 0  9997
2 44794  54.6066 328.7786 0005182  13.5950 346.4683  1.86232392 29211
ELEKTRO-L 3             
1 44903U 19095A   24073.18005104 -.00000106  00000+0  00000+0 0  9995
2 44903   0.0637  82.5954 0001380 257.3041 332.1904  1.00270312 15403
GPS BIII-3              
1 45854U 20041A   24072.32949970 -.00000031  00000+0  00000+0 0  9994
2 45854  56.0448  61.2317 0040576 193.8055 338.1106  2.00559614 27450
COSMOS 2547             
1 46805U 20075A   24069.29152099  .00000030  00000+0  00000+0 0  9996
2 46805  64.6056 220.2228 0005883 234.7636 125.1437  2.13102926 26226
GPS BIII-4              
1 46826U 20078A   24072.86757435  .00000025  00000+0  00000+0 0  9998
2 46826  54.2227 244.3189 0041595 193.5908 344.2169  2.00560869 24922
GSAT0223 (GALILEO 27)   
1 49809U 21116A   24068.68097139 -.00000087  00000+0  00000+0 0  9998
2 49809  57.2961   4.0742 0001635 276.0346 264.0315  1.70475103 14028
GSAT0224 (GALILEO 28)   
1 49810U 21116B   24072.02147203 -.00000098  00000+0  00000+0 0  9993
2 49810  57.2969   3.9820 0001552 299.2718 243.4235  1.70475159 14103
GOES 18                 
1 51850U 22021A   24073.25441372  .00000087  00000+0  00000+0 0  9993
2 51850   0.0094  58.3488 0000545 235.2832 192.2945  1.00271670  7529
CRE (WAAS/PRN 138)      
1 28868U 05036A   24072.64229133 -.00000083  00000+0  00000+0 0  9991
2 28868   2.1824  86.8002 0002498 289.0124 278.8615  1.00271213 38166
IOR-W (EGNOS/PRN 126)   
1 28899U 05044A   24072.33423128 -.00000269  00000+0  00000+0 0  9996
2 28899   4.0839  42.0709 0002016 320.3586  71.8399  1.00273019 67238
QZS-1 (QZSS/PRN 183)    
1 37158U 10045A   24073.23406660  .00000004  00000+0  00000+0 0  9999
2 37158  43.1220 125.5190 0001350 194.6497 167.1300  0.87715015 49140
GSAT-8 (GAGAN/PRN 127)  
1 37605U 11022A   24071.89702441  .00000074  00000+0  00000+0 0  9995
2 37605   0.0261 108.7086 0006850 186.9129 252.3785  1.00271248 44923
LUCH 5A (SDCM/PRN 140)  
1 37951U 11074B   24072.84005250 -.00000056  00000+0  00000+0 0  9997
2 37951   6.6356  86.5157 0002770 273.4264 280.3491  1.00269457 44907
SES-5 (EGNOS/PRN 136)   
1 38652U 12036A   24072.87949644  .00000023  00000+0  00000+0 0  9995
2 38652   0.0339 318.1324 0002057  30.0171 144.4282  1.00270933 36200
GSAT-10 (GAGAN/PRN 128) 
1 38779U 12051B   24071.88889406 -.00000175  00000+0  00000+0 0  9990
2 38779   0.0546 269.8436 0003660   9.8917 293.2437  1.00271199 41812
LUCH 5B (SDCM/PRN 125)  
1 38977U 12061A   24072.92202053 -.00000143  00000+0  00000+0 0  9999
2 38977   8.6776  57.5297 0000630 183.8429 245.2675  1.00271207 41892
ASTRA 5B (EGNOS/PRN 123)
1 39617U 14011B   24071.88072212  .00000126  00000+0  00000+0 0  9994
2 39617   0.0810 305.1858 0003883  27.0379 178.3219  1.00272621 36378
LUCH 5V (SDCM/PRN 141)  
1 39727U 14023A   24073.11217341 -.00000278  00000+0  00000+0 0  9990
2 39727   3.0588  76.5767 0002406 276.3094 313.4367  1.00273728554220
GSAT-15 (GAGAN/PRN 139) 
1 41028U 15065A   24072.96864550 -.00000268  00000+0  00000+0 0  9995
2 41028   0.0301 262.7201 0001775  94.5396 256.0102  1.00272109 30570
E 117 W B (WAAS/PRN 131)
1 41589U 16038B   24073.14167406 -.00000022  00000+0  00000+0 0  9993
2 41589   0.0174 314.6752 0000108  16.8313 133.7527  1.00271682 28421
SES-15 (WAAS/PRN 133)   
1 42709U 17026A   24072.56640760  .00000050  00000+0  00000+0 0  9990
2 42709   0.0348  43.2078 0000305 302.8063 259.4086  1.00270636 25852
QZS-2 (QZSS/PRN 184)    
1 42738U 17028A   24068.82690830 -.00000132  00000+0  00000+0 0  9993
2 42738  40.7374 255.1879 0745913 270.2945  80.2837  1.00263139 24803
QZS-3 (QZSS/PRN 189)    
1 42917U 17048A   24072.61731583 -.00000359  00000+0  00000+0 0  9998
2 42917   0.0542 169.2472 0001255 192.5727 158.0618  1.00264877 23978
QZS-4 (QZSS/PRN 185)    
1 42965U 17062A   24069.67750752 -.00000315  00000+0  00000+0 0  9990
2 42965  40.5582 354.0532 0749083 269.7415 287.2603  1.00280697 23498
BEIDOU-3 G1 (PRN 130)   
1 43683U 18085A   24073.19275634 -.00000288  00000+0  00000+0 0  9996
2 43683   1.9581 113.6376 0002244 319.2716 307.7390  1.00274271 19775
BEIDOU-3 G2 (PRN 144)   
1 45344U 20017A   24072.89437730 -.00000151  00000+0  00000+0 0  9992
2 45344   2.2057  25.6082 0001913 286.0920 261.3186  1.00271915 14976
BEIDOU-3 G3 (PRN 143)   
1 45807U 20040A   24073.04368662 -.00000363  00000+0  00000+0 0  9992
2 45807   0.6398  26.9739 0008329 296.8542 333.5541  1.00266628 13803
GALAXY 30 (WAAS/PRN 135)
1 46114U 20056C   24072.71043003  .00000027  00000+0  00000+0 0  9999
2 46114   0.0198 141.5423 0001792 218.1005 301.9331  1.00270322 13003
HST                     
1 20580U 90037B   24072.87302726  .00005222  00000+0  25291-3 0  9996
2 20580  28.4674 269.7117 0003101  66.1054 293.9863 15.16273412662396
POLAR                   
1 23802U 96013A   24071.85745249  .00000259  00000+0  00000+0 0  9996
2 23802  79.0598 235.5735 5831848 237.0903  53.3175  1.29846905134114
SWAS                    
1 25560U 98071A   24072.58108046  .00004660  00000+0  38918-3 0  9997
2 25560  69.8993 183.7803 0003745  71.5531 288.6035 14.99220661372908
CXO                     
1 25867U 99040B   24075.31335149  .00000887  00000+0  00000+0 0  9998
2 25867  39.2433 163.2357 8969931 289.4884   0.3766  0.37810143 25364
XMM-NEWTON              
1 25989U 99066A   24073.10811062  .00000076  00000+0  00000+0 0  9999
2 25989  68.1471 294.2810 5245250  78.5875  72.3181  0.50130105 33228
TERRA                   
1 25994U 99068A   24073.18962597  .00000538  00000+0  12260-3 0  9993
2 25994  98.0588 139.4679 0001036 340.6828  79.6080 14.59596370289164
CLUSTER II-FM7 (SAMBA)  
1 26410U 00041A   24069.83402918 -.00000067  00000+0  00000+0 0  9996
2 26410 138.3295 356.3100 7230481 211.1326 359.9837  0.44185988 28365
CLUSTER II-FM6 (SALSA)  
1 26411U 00041B   24056.23863267  .00002048  00000+0  00000+0 0  9995
2 26411 145.9962  14.4063 8793806 228.8952 359.4019  0.44230975 16605
CLUSTER II-FM5 (RUMBA)  
1 26463U 00045A   24069.82687314  .00001188  00000+0  00000+0 0  9996
2 26463 148.6166  12.4746 8338154 227.6344   0.1651  0.44211459 28945
CLUSTER II-FM8 (TANGO)  
1 26464U 00045B   24072.09550358  .00000028  00000+0  00000+0 0  9999
2 26464 138.3326 356.3337 7235177 211.1750 359.9788  0.44218326 16623
ODIN                    
1 26702U 01007A   24072.50119444  .00008306  00000+0  39231-3 0  9995
2 26702  97.4907  88.2595 0006107 254.5040 105.5520 15.19663861262202
TIMED                   
1 26998U 01055B   24072.50392233  .00001517  00000+0  15775-3 0  9998
2 26998  74.0689  94.5878 0001707 242.3268 117.7741 14.90881528207411
INTEGRAL                
1 27540U 02048A   24072.55616483  .00000034  00000+0  00000+0 0  9990
2 27540  88.1951  25.2976 8674564 284.7258 277.7816  0.37569826 23525
CORIOLIS                
1 27640U 03001A   24072.51525730  .00000145  00000+0  89685-4 0  9995
2 27640  98.7166  81.2734 0015238  74.8399 285.4461 14.19412842 96924
SORCE                   
1 27651U 03004A   24073.21391346  .00002971  00000+0  28461-3 0  9995
2 27651  39.9926 263.2575 0021470 277.5556  82.2796 14.94167775147908
MOST                    
1 27843U 03031D   24072.51646976  .00000127  00000+0  79026-4 0  9997
2 27843  98.7095  80.8724 0010978 116.2854 243.9452 14.20913073 73295
SCISAT 1                
1 27858U 03036A   24072.81933829  .00001160  00000+0  16220-3 0  9991
2 27858  73.9346  10.4608 0009191 261.9244  98.0888 14.78893458109166
SWIFT                   
1 28485U 04047A   24072.87657295  .00010779  00000+0  51402-3 0  9994
2 28485  20.5558 149.2672 0009250 115.5913 244.5480 15.16296060 59520
CLOUDSAT                
1 29107U 06016A   24072.91861746  .00001647  00000+0  22265-3 0  9996
2 29107  98.4015  53.6936 0002353 177.5255 182.5968 14.80491907951901
CALIPSO                 
1 29108U 06016B   24073.02278930  .00001742  00000+0  33242-3 0  9990
2 29108  98.4112  52.5834 0001426  78.4118 281.7244 14.65282217951861
HINODE (SOLAR-B)        
1 29479U 06041A   24073.05835849  .00000982  00000+0  18718-3 0  9996
2 29479  98.0964  89.7264 0018633  28.9605 331.2629 14.66114279933693
SJ-6C                   
1 29505U 06046A   24073.12312709  .00004164  00000+0  32305-3 0  9998
2 29505  97.7349 100.5070 0007536  94.3412 265.8674 15.01898272947730
SJ-6D                   
1 29506U 06046B   24073.19949820  .00002023  00000+0  18212-3 0  9999
2 29506  97.7487  99.0062 0000726 230.2059 129.9098 14.96733389946974
